     2.100          NAVIGATION                              RINEX VERSION / TYPE
fic2rin                                 07/15/2011 00:30:59 PGM / RUN BY / DATE
                                                            END OF HEADER
 9 11  7 14 14  0  0.0  .926586799324D-04  .238742359215D-11  .000000000000D+00
     .990000000000D+02  .489687500000D+02  .449483008486D-08  .122819857005D+01
     .207684934139D-05  .174456688110D-01  .118650496006D-05  .515365941048D+04
     .396000000000D+06 -.217929482460D-06  .137625707539D+01 -.311061739922D-06
     .983431084081D+00  .369531250000D+03  .158562023661D+01 -.839534970001D-08
     .889322758148D-10  .100000000000D+01  .164400000000D+04  .000000000000D+00
     .240000000000D+01  .000000000000D+00 -.558793544769D-08  .990000000000D+02
     .388806000000D+06  .400000000000D+01
10 11  7 14 14  0  0.0 -.670552253723D-05 -.125055521494D-11  .000000000000D+00
     .420000000000D+02 -.978125000000D+01  .488198906873D-08 -.605316327180D+00
    -.337138772011D-06  .102238544496D-01  .941194593906D-05  .515361797523D+04
     .396000000000D+06  .912696123123D-07 -.677901753581D+00  .113621354103D-06
     .948631500413D+00  .191812500000D+03  .703057130271D+00 -.816462580372D-08
    -.572523847916D-09  .100000000000D+01  .164400000000D+04  .000000000000D+00
     .240000000000D+01  .000000000000D+00 -.232830643654D-08  .420000000000D+02
     .388806000000D+06  .400000000000D+01
11 11  7 14 14  0  0.0 -.167984515429D-03 -.329691829393D-11  .000000000000D+00
     .750000000000D+02  .278437500000D+02  .646884088176D-08  .210046064699D+01
     .134296715260D-05  .119100053562D-01  .549294054508D-05  .515365917969D+04
     .396000000000D+06 -.104308128357D-06 -.200351719862D+01 -.257045030594D-06
     .887642839213D+00  .234281250000D+03  .943397662288D+00 -.890287084031D-08
     .518235872319D-09  .100000000000D+01  .164400000000D+04  .000000000000D+00
     .240000000000D+01  .000000000000D+00 -.116415321827D-07  .750000000000D+02
     .388806000000D+06  .400000000000D+01
12 11  7 14 14  0  0.0  .907480716705D-05  .250111042988D-11  .000000000000D+00
     .850000000000D+02 -.133406250000D+03  .409017037201D-08  .176083121101D+01
    -.687874853611D-05  .365932867862D-02  .597350299358D-05  .515371553612D+04
     .396000000000D+06 -.130385160446D-07  .245993580289D+01  .428408384323D-07
     .975973955724D+00  .272218750000D+03 -.113469423874D+00 -.789640034534D-08
    -.397873715894D-09  .100000000000D+01  .164400000000D+04  .000000000000D+00
     .240000000000D+01  .000000000000D+00 -.121071934700D-07  .850000000000D+02
     .388806000000D+06  .400000000000D+01
13 11  7 14 14  0  0.0  .261166132987D-03 -.170530256582D-11  .000000000000D+00
     .790000000000D+02  .150531250000D+03  .374551315851D-08 -.188065951553D+01
     .794604420662D-05  .473901163787D-02  .900030136108D-05  .515358316994D+04
     .396000000000D+06 -.745058059692D-08  .430006096714D+00  .949949026108D-07
     .989551263308D+00  .225343750000D+03  .189442586724D+01 -.762638909829D-08
     .220723479733D-09  .100000000000D+01  .164400000000D+04  .000000000000D+00
     .340000000000D+01  .000000000000D+00 -.111758708954D-07  .790000000000D+02
     .388806000000D+06  .400000000000D+01
14 11  7 14 14  0  0.0  .161543488503D-03  .204636307899D-11  .000000000000D+00
     .170000000000D+02  .123562500000D+03  .388480467485D-08 -.183570808792D+01
     .650063157082D-05  .594801490661D-02  .883080065250D-05  .515369171333D+04
     .396000000000D+06  .782310962677D-07  .405498134419D+00  .316649675369D-07
     .982567026146D+00  .220406250000D+03 -.211252110602D+01 -.762067457454D-08
     .198579700213D-09  .100000000000D+01  .164400000000D+04  .000000000000D+00
     .240000000000D+01  .000000000000D+00 -.884756445885D-08  .170000000000D+02
     .388806000000D+06  .400000000000D+01
15 11  7 14 14  0  0.0 -.115990638733D-03  .204636307899D-11  .000000000000D+00
     .210000000000D+02  .123031250000D+03  .464233622908D-08 -.221912795778D+01
     .629387795925D-05  .346361333504D-02  .988133251667D-05  .515364817238D+04
     .396000000000D+06 -.614672899246D-07  .328167423090D+00 -.912696123123D-07
     .949703757922D+00  .185812500000D+03 -.576928925577D-01 -.799283293357D-08
     .104647216119D-09  .100000000000D+01  .164400000000D+04  .000000000000D+00
     .240000000000D+01  .000000000000D+00 -.102445483208D-07  .210000000000D+02
     .388806000000D+06  .400000000000D+01
16 11  7 14 14  0  0.0 -.185368116945D-03 -.238742359215D-11  .000000000000D+00
     .310000000000D+02 -.130875000000D+03  .401909598291D-08 -.593767007339D+00
    -.689737498760D-05  .633686350193D-02  .683404505253D-05  .515384507370D+04
     .396000000000D+06  .100582838058D-06  .247781505222D+01 -.782310962677D-07
     .976974577061D+00  .257218750000D+03 -.756704748590D-01 -.792675875275D-08
    -.374658463172D-09  .100000000000D+01  .164400000000D+04  .000000000000D+00
     .240000000000D+01  .000000000000D+00 -.977888703346D-08  .310000000000D+02
     .388806000000D+06  .400000000000D+01
17 11  7 14 14  0  0.0  .182328745723D-03 -.795807864051D-12  .000000000000D+00
     .490000000000D+02 -.321562500000D+02  .413481508879D-08 -.157943348730D+01
    -.167824327946D-05  .640034617390D-02  .114254653454D-04  .515378598213D+04
     .396000000000D+06  .180676579475D-06 -.276350732914D+01 -.109896063805D-06
     .961776825842D+00  .162062500000D+03 -.239180917232D+01 -.759710216408D-08
     .524307553800D-09  .100000000000D+01  .164400000000D+04  .000000000000D+00
     .240000000000D+01  .000000000000D+00 -.107102096081D-07  .490000000000D+02
     .388806000000D+06  .400000000000D+01
18 11  7 14 14  0  0.0  .147155020386D-03  .193267624127D-11  .000000000000D+00
     .280000000000D+02 -.118437500000D+02  .529664919813D-08 -.110315050653D+00
    -.545755028725D-06  .126416133717D-01  .917911529541D-05  .515361026764D+04
     .396000000000D+06 -.447034835815D-07 -.684193427768D+00  .210478901863D-06
     .932507154437D+00  .191875000000D+03 -.223624454550D+01 -.844999483335D-08
    -.481448625696D-09  .100000000000D+01  .164400000000D+04  .000000000000D+00
     .240000000000D+01  .000000000000D+00 -.107102096081D-07  .280000000000D+02
     .388806000000D+06  .400000000000D+01
19 11  7 14 14  0  0.0 -.161943025887D-03 -.409272615798D-11  .000000000000D+00
     .640000000000D+02 -.124375000000D+02  .420053211188D-08 -.220551763214D+01
    -.687316060066D-06  .749412493315D-02  .114366412163D-04  .515368313789D+04
     .396000000000D+06 -.838190317154D-07 -.270964022483D+01  .167638063431D-07
     .959231324978D+00  .159875000000D+03  .433378304289D-01 -.769246327912D-08
     .687528638327D-09  .100000000000D+01  .164400000000D+04  .000000000000D+00
     .240000000000D+01  .000000000000D+00 -.144354999065D-07  .640000000000D+02
     .388806000000D+06  .400000000000D+01
20 11  7 14 14  0  0.0  .506960786879D-04  .341060513165D-12  .000000000000D+00
     .230000000000D+02 -.118750000000D+02  .526736226392D-08  .268536373275D+00
    -.908970832825D-06  .448115402833D-02  .886991620064D-05  .515362578964D+04
     .396000000000D+06  .204890966415D-07 -.738089250620D+00  .149011611938D-07
     .932660633562D+00  .194750000000D+03  .128266685762D+01 -.833677583161D-08
    -.553594488004D-09  .100000000000D+01  .164400000000D+04  .000000000000D+00
     .240000000000D+01  .000000000000D+00 -.745058059692D-08  .230000000000D+02
     .388806000000D+06  .400000000000D+01
21 11  7 14 14  0  0.0 -.157802365720D-03 -.261479726760D-11  .000000000000D+00
     .140000000000D+02  .144062500000D+02  .563559188788D-08  .104744515496D+01
     .854954123497D-06  .180070644710D-01  .510551035404D-05  .515372865677D+04
     .396000000000D+06 -.217929482460D-06 -.173826447372D+01  .143423676491D-06
     .931185144628D+00  .268906250000D+03 -.234576135344D+01 -.875393606515D-08
     .357157734196D-10  .100000000000D+01  .164400000000D+04  .000000000000D+00
     .240000000000D+01  .000000000000D+00 -.116415321827D-07  .140000000000D+02
     .388806000000D+06  .400000000000D+01
22 11  7 14 14  0  0.0  .146375037730D-03 -.454747350886D-12  .000000000000D+00
     .430000000000D+02 -.937500000000D+01  .523843248745D-08 -.929547388820D+00
    -.348314642906D-06  .585840526037D-02  .897981226444D-05  .515370318413D+04
     .396000000000D+06 -.391155481339D-07 -.680156999795D+00  .167638063431D-06
     .930209526023D+00  .191531250000D+03 -.198091981466D+01 -.829498837670D-08
    -.483948729836D-09  .100000000000D+01  .164400000000D+04  .000000000000D+00
     .240000000000D+01  .000000000000D+00 -.167638063431D-07  .430000000000D+02
     .388806000000D+06  .400000000000D+01
23 11  7 14 14  0  0.0  .291935168207D-03 -.284217094304D-11  .000000000000D+00
     .860000000000D+02  .150250000000D+03  .421231831711D-08 -.266421517164D+01
     .772811472416D-05  .744912994560D-02  .975839793682D-05  .515376433563D+04
     .396000000000D+06 -.109896063805D-06  .359186664058D+00 -.484287738800D-07
     .964231978349D+00  .198968750000D+03 -.310779630988D+01 -.777353808478D-08
     .149291932894D-09  .100000000000D+01  .164400000000D+04  .000000000000D+00
     .240000000000D+01  .000000000000D+00 -.200234353542D-07  .860000000000D+02
     .388806000000D+06  .400000000000D+01
24 11  7 14 14  0  0.0  .406595878303D-03  .318323145621D-11  .000000000000D+00
     .950000000000D+02  .975000000000D+01  .517092967569D-08  .288751555049D+01
     .586733222008D-06  .636221887544D-02  .465102493763D-05  .515368618584D+04
     .396000000000D+06 -.707805156708D-07 -.169269209590D+01  .614672899246D-07
     .947752463660D+00  .280062500000D+03 -.251557454926D+00 -.824284334751D-08
     .206437170365D-09  .100000000000D+01  .164400000000D+04  .000000000000D+00
     .340000000000D+01  .000000000000D+00 -.139698386192D-08  .950000000000D+02
     .388806000000D+06  .400000000000D+01
